[{"OBJECT_NAME":"STARLINK-32881","OBJECT_ID":"2025-031S","EPOCH":"2026-03-09T06:32:17.260800","MEAN_MOTION":15.2757529,"ECCENTRICITY":0.0001164,"INCLINATION":43.0013,"RA_OF_ASC_NODE":145.4957,"ARG_OF_PERICENTER":231.6064,"MEAN_ANOMALY":128.4683,"EPHEMERIS_TYPE":0,"CLASSIFICATION_TYPE":"U","NORAD_CAT_ID":62997,"ELEMENT_SET_NO":999,"REV_AT_EPOCH":6103,"BSTAR":0.0011892361,"MEAN_MOTION_DOT":0.00032603,"MEAN_MOTION_DDOT":0},{"OBJECT_NAME":"GEOSCAN 5 (RS92S5)","OBJECT_ID":"2025-155R","EPOCH":"2026-03-09T22:01:07.273920","MEAN_MOTION":15.30265233,"ECCENTRICITY":0.00070849,"INCLINATION":97.4462,"RA_OF_ASC_NODE":37.7456,"ARG_OF_PERICENTER":154.5846,"MEAN_ANOMALY":205.5745,"EPHEMERIS_TYPE":0,"CLASSIFICATION_TYPE":"U","NORAD_CAT_ID":64891,"ELEMENT_SET_NO":999,"REV_AT_EPOCH":6562,"BSTAR":0.00068639307,"MEAN_MOTION_DOT":0.00020065,"MEAN_MOTION_DDOT":0}]
